ORBCOMM FM06 [+]        
1 25118U 97084G   24107.67789091  .00005586  00000+0  17105-2 0  9995
2 25118  45.0131 250.6554 0002977 236.2516 138.0542 14.42520840379888
ORBCOMM FM03 [-]        
1 25158U 98007B   24108.18930122  .00003440  00000+0  13093-2 0  9994
2 25158 107.9752 341.9991 0048885 272.8840  86.6704 14.32047109363143
ORBCOMM FM04 [+]        
1 25159U 98007C   24108.18214982  .00003225  00000+0  12272-2 0  9993
2 25159 107.9732 344.9059 0044421 270.8321  88.7728 14.32301861363286
ORBCOMM FM18 [-]        
1 25414U 98046B   24107.89924151  .00004279  00000+0  15145-2 0  9995
2 25414  44.9945  33.8614 0005099 304.8855  55.1512 14.35740631342927
ORBCOMM FM19 [+]        
1 25415U 98046C   24107.54747962  .00004070  00000+0  14477-2 0  9997
2 25415  44.9956  36.9030 0003903 299.3581 230.2024 14.35571274342831
